{"type": "FeatureCollection", "features": [ {"type": "Feature", "properties": {"norad_id": 34911, "name": "COSMOS 2251 DEB", "group": "cosmos-2251-debris", "lat": -73.41383532098487, "lon": 146.5433629803287, "alt_km": 679.5097437338745, "timestamp": "2025-12-25T11:37:44.834930+00:00", "meta": {"OBJECT_NAME": "COSMOS 2251 DEB", "OBJECT_ID": "1993-036ADG", "EPOCH": "2025-12-24T21:16:20.685792", "MEAN_MOTION": 14.59389017, "ECCENTRICITY": 0.008416, "INCLINATION": 74.0397, "RA_OF_ASC_NODE": 221.5946, "ARG_OF_PERICENTER": 343.9846, "MEAN_ANOMALY": 29.9436, "EPHEMERIS_TYPE": 0, "CLASSIFICATION_TYPE": "U", "NORAD_CAT_ID": 34911, "ELEMENT_SET_NO": 999, "REV_AT_EPOCH": 88764, "BSTAR": 0.00011043, "MEAN_MOTION_DOT": 5.17e-06, "MEAN_MOTION_DDOT": 0}, "tle": {"line1": "1 34911U 93036ADG 25358.88635053  .00000517  00000+0  11043-3 0  9994", "line2": "2 34911  74.0397 221.5946 0084160 343.9846  29.9436 14.59389017887648"}}, "geometry": {"type": "Point", "coordinates": [146.5433629803287, -73.41383532098487]}}, {"type": "Feature", "properties": {"norad_id": 34913, "name": "COSMOS 2251 DEB", "group": "cosmos-2251-debris", "lat": -42.12470233739615, "lon": 94.15451580280276, "alt_km": 794.136927488561, "timestamp": "2025-12-25T11:37:44.834940+00:00", "meta": {"OBJECT_NAME": "COSMOS 2251 DEB", "OBJECT_ID": "1993-036ADJ", "EPOCH": "2025-12-23T10:36:37.078848", "MEAN_MOTION": 14.34640565, "ECCENTRICITY": 0.00207883, "INCLINATION": 74.0284, "RA_OF_ASC_NODE": 262.8852, "ARG_OF_PERICENTER": 9.9036, "MEAN_ANOMALY": 109.9742, "EPHEMERIS_TYPE": 0, "CLASSIFICATION_TYPE": "U", "NORAD_CAT_ID": 34913, "ELEMENT_SET_NO": 999, "REV_AT_EPOCH": 65341, "BSTAR": 5.2055056e-05, "MEAN_MOTION_DOT": 1.21e-06, "MEAN_MOTION_DDOT": 0}, "tle": {"line1": "1 34913U 93036ADJ 25357.44209582  .00000121  00000+0  52055-4 0  9991", "line2": "2 34913  74.0284 262.8852 0020788   9.9036 109.9742 14.34640565653411"}}, "geometry": {"type": "Point", "coordinates": [94.15451580280276, -42.12470233739615]}}, {"type": "Feature", "properties": {"norad_id": 34918, "name": "COSMOS 2251 DEB", "group": "cosmos-2251-debris", "lat": 26.274880655251433, "lon": 101.20466380043473, "alt_km": 692.126930580067, "timestamp": "2025-12-25T11:37:44.834950+00:00", "meta": {"OBJECT_NAME": "COSMOS 2251 DEB", "OBJECT_ID": "1993-036ADP", "EPOCH": "2025-12-24T02:08:41.542080", "MEAN_MOTION": 14.61378156, "ECCENTRICITY": 0.00328762, "INCLINATION": 74.0715, "RA_OF_ASC_NODE": 291.971, "ARG_OF_PERICENTER": 257.5007, "MEAN_ANOMALY": 118.3571, "EPHEMERIS_TYPE": 0, "CLASSIFICATION_TYPE": "U", "NORAD_CAT_ID": 34918, "ELEMENT_SET_NO": 999, "REV_AT_EPOCH": 65502, "BSTAR": 0.0016613366, "MEAN_MOTION_DOT": 8.26e-05, "MEAN_MOTION_DDOT": 0}, "tle": {"line1": "1 34918U 93036ADP 25358.08936970  .00008260  00000+0  16613-2 0  9995", "line2": "2 34918  74.0715 291.9710 0032876 257.5007 118.3571 14.61378156655028"}}, "geometry": {"type": "Point", "coordinates": [101.20466380043473, 26.274880655251433]}}, {"type": "Feature", "properties": {"norad_id": 34924, "name": "COSMOS 2251 DEB", "group": "cosmos-2251-debris", "lat": 73.80752092702708, "lon": 164.9084145951629, "alt_km": 662.8931817886523, "timestamp": "2025-12-25T11:37:44.834960+00:00", "meta": {"OBJECT_NAME": "COSMOS 2251 DEB", "OBJECT_ID": "1993-036ADV", "EPOCH": "2025-12-23T21:54:48.053952", "MEAN_MOTION": 14.60122119, "ECCENTRICITY": 0.0053434, "INCLINATION": 74.0406, "RA_OF_ASC_NODE": 68.1296, "ARG_OF_PERICENTER": 149.9292, "MEAN_ANOMALY": 326.1896, "EPHEMERIS_TYPE": 0, "CLASSIFICATION_TYPE": "U", "NORAD_CAT_ID": 34924, "ELEMENT_SET_NO": 999, "REV_AT_EPOCH": 87886, "BSTAR": 0.00083112, "MEAN_MOTION_DOT": 4.052e-05, "MEAN_MOTION_DDOT": 0}, "tle": {"line1": "1 34924U 93036ADV 25357.91305618  .00004052  00000+0  83112-3 0  9996", "line2": "2 34924  74.0406  68.1296 0053434 149.9292 326.1896 14.60122119878861"}}, "geometry": {"type": "Point", "coordinates": [164.9084145951629, 73.80752092702708]}}, {"type": "Feature", "properties": {"norad_id": 34944, "name": "COSMOS 2251 DEB", "group": "cosmos-2251-debris", "lat": -67.92500674087063, "lon": 75.04620768214117, "alt_km": 1000.44697299786, "timestamp": "2025-12-25T11:37:44.834971+00:00", "meta": {"OBJECT_NAME": "COSMOS 2251 DEB", "OBJECT_ID": "1993-036ADX", "EPOCH": "2025-12-25T00:14:49.401600", "MEAN_MOTION": 14.14207616, "ECCENTRICITY": 0.0220004, "INCLINATION": 73.7462, "RA_OF_ASC_NODE": 209.9012, "ARG_OF_PERICENTER": 55.3787, "MEAN_ANOMALY": 306.7883, "EPHEMERIS_TYPE": 0, "CLASSIFICATION_TYPE": "U", "NORAD_CAT_ID": 34944, "ELEMENT_SET_NO": 999, "REV_AT_EPOCH": 64256, "BSTAR": 0.00033518, "MEAN_MOTION_DOT": 7.8e-06, "MEAN_MOTION_DDOT": 0}, "tle": {"line1": "1 34944U 93036ADX 25359.01029400  .00000780  00000+0  33518-3 0  9992", "line2": "2 34944  73.7462 209.9012 0220004  55.3787 306.7883 14.14207616642561"}}, "geometry": {"type": "Point", "coordinates": [75.04620768214117, -67.92500674087063]}}, {"type": "Feature", "properties": {"norad_id": 34946, "name": "COSMOS 2251 DEB", "group": "cosmos-2251-debris", "lat": 25.1269531805116, "lon": -34.58076720041627, "alt_km": 670.7160403208863, "timestamp": "2025-12-25T11:37:44.834981+00:00", "meta": {"OBJECT_NAME": "COSMOS 2251 DEB", "OBJECT_ID": "1993-036ADZ", "EPOCH": "2025-12-22T14:32:14.157024", "MEAN_MOTION": 14.62044182, "ECCENTRICITY": 0.00485038, "INCLINATION": 74.0239, "RA_OF_ASC_NODE": 323.2107, "ARG_OF_PERICENTER": 97.3579, "MEAN_ANOMALY": 263.3103, "EPHEMERIS_TYPE": 0, "CLASSIFICATION_TYPE": "U", "NORAD_CAT_ID": 34946, "ELEMENT_SET_NO": 999, "REV_AT_EPOCH": 88353, "BSTAR": 0.00053383233, "MEAN_MOTION_DOT": 2.695e-05, "MEAN_MOTION_DDOT": 0}, "tle": {"line1": "1 34946U 93036ADZ 25356.60571941  .00002695  00000+0  53383-3 0  9997", "line2": "2 34946  74.0239 323.2107 0048503  97.3579 263.3103 14.62044182883538"}}, "geometry": {"type": "Point", "coordinates": [-34.58076720041627, 25.1269531805116]}}, {"type": "Feature", "properties": {"norad_id": 34949, "name": "COSMOS 2251 DEB", "group": "cosmos-2251-debris", "lat": 61.033900743250896, "lon": -126.42057858315691, "alt_km": 663.3080466949705, "timestamp": "2025-12-25T11:37:44.834990+00:00", "meta": {"OBJECT_NAME": "COSMOS 2251 DEB", "OBJECT_ID": "1993-036AEC", "EPOCH": "2025-12-24T23:42:11.920608", "MEAN_MOTION": 14.74082304, "ECCENTRICITY": 0.0080001, "INCLINATION": 74.0188, "RA_OF_ASC_NODE": 85.7299, "ARG_OF_PERICENTER": 228.4797, "MEAN_ANOMALY": 130.9495, "EPHEMERIS_TYPE": 0, "CLASSIFICATION_TYPE": "U", "NORAD_CAT_ID": 34949, "ELEMENT_SET_NO": 999, "REV_AT_EPOCH": 88542, "BSTAR": 0.00055955, "MEAN_MOTION_DOT": 3.845e-05, "MEAN_MOTION_DDOT": 0}, "tle": {"line1": "1 34949U 93036AEC 25358.98763797  .00003845  00000+0  55955-3 0  9990", "line2": "2 34949  74.0188  85.7299 0080001 228.4797 130.9495 14.74082304885428"}}, "geometry": {"type": "Point", "coordinates": [-126.42057858315691, 61.033900743250896]}}, {"type": "Feature", "properties": {"norad_id": 34953, "name": "COSMOS 2251 DEB", "group": "cosmos-2251-debris", "lat": -37.659001603902645, "lon": -164.38479225383114, "alt_km": 697.6759382837945, "timestamp": "2025-12-25T11:37:44.835001+00:00", "meta": {"OBJECT_NAME": "COSMOS 2251 DEB", "OBJECT_ID": "1993-036AEG", "EPOCH": "2025-12-24T19:05:28.246848", "MEAN_MOTION": 14.69063461, "ECCENTRICITY": 0.00588062, "INCLINATION": 74.093, "RA_OF_ASC_NODE": 4.23, "ARG_OF_PERICENTER": 352.8678, "MEAN_ANOMALY": 184.1969, "EPHEMERIS_TYPE": 0, "CLASSIFICATION_TYPE": "U", "NORAD_CAT_ID": 34953, "ELEMENT_SET_NO": 999, "REV_AT_EPOCH": 88305, "BSTAR": 0.00092055059, "MEAN_MOTION_DOT": 5.521e-05, "MEAN_MOTION_DDOT": 0}, "tle": {"line1": "1 34953U 93036AEG 25358.79546582  .00005521  00000+0  92055-3 0  9990", "line2": "2 34953  74.0930   4.2300 0058806 352.8678 184.1969 14.69063461883056"}}, "geometry": {"type": "Point", "coordinates": [-164.38479225383114, -37.659001603902645]}}, {"type": "Feature", "properties": {"norad_id": 34955, "name": "COSMOS 2251 DEB", "group": "cosmos-2251-debris", "lat": 4.007490995352833, "lon": -138.27553670760298, "alt_km": 554.2278049419056, "timestamp": "2025-12-25T11:37:44.835010+00:00", "meta": {"OBJECT_NAME": "COSMOS 2251 DEB", "OBJECT_ID": "1993-036AEJ", "EPOCH": "2025-12-24T22:48:41.658624", "MEAN_MOTION": 15.00737641, "ECCENTRICITY": 0.0077736, "INCLINATION": 74.035, "RA_OF_ASC_NODE": 221.6616, "ARG_OF_PERICENTER": 288.4914, "MEAN_ANOMALY": 70.7836, "EPHEMERIS_TYPE": 0, "CLASSIFICATION_TYPE": "U", "NORAD_CAT_ID": 34955, "ELEMENT_SET_NO": 999, "REV_AT_EPOCH": 90217, "BSTAR": 0.00061622, "MEAN_MOTION_DOT": 8.298e-05, "MEAN_MOTION_DDOT": 0}, "tle": {"line1": "1 34955U 93036AEJ 25358.95048216  .00008298  00000+0  61622-3 0  9991", "line2": "2 34955  74.0350 221.6616 0077736 288.4914  70.7836 15.00737641902171"}}, "geometry": {"type": "Point", "coordinates": [-138.27553670760298, 4.007490995352833]}}, {"type": "Feature", "properties": {"norad_id": 34962, "name": "COSMOS 2251 DEB", "group": "cosmos-2251-debris", "lat": -12.594636484975842, "lon": -6.774031100813217, "alt_km": 740.6556439870919, "timestamp": "2025-12-25T11:37:44.835021+00:00", "meta": {"OBJECT_NAME": "COSMOS 2251 DEB", "OBJECT_ID": "1993-036AER", "EPOCH": "2025-12-24T21:27:34.403616", "MEAN_MOTION": 14.46552409, "ECCENTRICITY": 0.0018915, "INCLINATION": 74.0287, "RA_OF_ASC_NODE": 170.6598, "ARG_OF_PERICENTER": 282.7442, "MEAN_ANOMALY": 77.1602, "EPHEMERIS_TYPE": 0, "CLASSIFICATION_TYPE": "U", "NORAD_CAT_ID": 34962, "ELEMENT_SET_NO": 999, "REV_AT_EPOCH": 87754, "BSTAR": 0.00044037, "MEAN_MOTION_DOT": 1.563e-05, "MEAN_MOTION_DDOT": 0}, "tle": {"line1": "1 34962U 93036AER 25358.89414819  .00001563  00000+0  44037-3 0  9997", "line2": "2 34962  74.0287 170.6598 0018915 282.7442  77.1602 14.46552409877547"}}, "geometry": {"type": "Point", "coordinates": [-6.774031100813217, -12.594636484975842]}}]}